GLOBALSTAR M068         
1 32266U 07048D   24201.50253954 -.00000035  00000+0  37969-3 0  9995
2 32266  51.9863 236.3688 0001127 133.0829  11.9645 12.62794609775524
GLOBALSTAR M079         
1 37188U 10054A   24201.39169977 -.00000081  00000+0  12505-3 0  9992
2 37188  52.0043  72.8683 0000562  51.6117 124.4749 12.62261772634427
GLOBALSTAR M074         
1 37189U 10054B   24201.41722828 -.00000080  00000+0  13363-3 0  9998
2 37189  52.0020  72.1658 0000781  64.5507 106.8432 12.62270489635033
GLOBALSTAR M076         
1 37190U 10054C   24201.88399400 -.00000074  00000+0  16836-3 0  9998
2 37190  52.0036  70.8854 0000892  40.1210 333.5059 12.62253776635178
GLOBALSTAR M077         
1 37191U 10054D   24201.47541744 -.00000096  00000+0  41059-4 0  9994
2 37191  52.0085  28.8888 0000894  83.9514 292.4156 12.62261355635136
GLOBALSTAR M075         
1 37192U 10054E   24201.53602981 -.00000094  00000+0  52539-4 0  9996
2 37192  51.9946 114.3867 0000491  46.6237 125.1143 12.62261796633999
GLOBALSTAR M073         
1 37193U 10054F   24201.50387057 -.00000090  00000+0  78935-4 0  9992
2 37193  52.0076  28.0510 0000842  73.7908 310.6321 12.62267139635828
GLOBALSTAR M083         
1 37739U 11033A   24201.60878925 -.00000096  00000+0  44715-4 0  9991
2 37739  51.9881 336.9161 0000675 120.0442 323.0751 12.62262371604859
GLOBALSTAR M088         
1 37740U 11033B   24201.51661056 -.00000064  00000+0  22089-3 0  9992
2 37740  51.9715 242.9692 0000337 177.9167 326.2702 12.62265350600387
GLOBALSTAR M091         
1 37741U 11033C   24201.45262612 -.00000082  00000+0  12070-3 0  9990
2 37741  51.9969 206.1247 0000315 211.6402 300.1233 12.62264868601161
GLOBALSTAR M085         
1 37742U 11033D   24201.81838503 -.00000105  00000+0 -64704-5 0  9999
2 37742  51.9853 156.3408 0000100 353.1927  82.8935 12.62263484602218
GLOBALSTAR M081         
1 37743U 11033E   24201.62832894 -.00000118  00000+0 -77433-4 0  9992
2 37743  51.9942 159.5021 0000324 326.7476 204.5942 12.62267003601847
GLOBALSTAR M089         
1 37744U 11033F   24201.51071101 -.00000105  00000+0 -65838-5 0  9990
2 37744  51.9928 114.1536 0000845  34.1500 140.9850 12.62265994602676
GLOBALSTAR M084         
1 38040U 11080A   24201.58192233 -.00000098  00000+0  34602-4 0  9993
2 38040  52.0030 341.0465 0000956  88.8833 351.3203 12.62264299580663
GLOBALSTAR M080         
1 38041U 11080B   24201.55487524 -.00000105  00000+0 -48900-5 0  9998
2 38041  52.0082 342.6181 0000858  73.4118   4.1367 12.62262872580928
GLOBALSTAR M082         
1 38042U 11080C   24201.55381950 -.00000081  00000+0  12917-3 0  9994
2 38042  52.0089 298.0344 0001024 149.0960 223.5496 12.62263909581497
GLOBALSTAR M092         
1 38043U 11080D   24201.08303734 -.00000054  00000+0  27904-3 0  9999
2 38043  52.0099  29.8233 0000977  83.7614  68.7532 12.62263894579885
GLOBALSTAR M090         
1 38044U 11080E   24201.51393792 -.00000072  00000+0  18007-3 0  9995
2 38044  51.9893 292.3936 0000724 144.8816 285.9963 12.62264885581601
GLOBALSTAR M086         
1 38045U 11080F   24201.52741348 -.00000072  00000+0  17957-3 0  9994
2 38045  51.9904 292.8766 0000336 292.5504  80.3853 12.62264534581555
GLOBALSTAR M097         
1 39072U 13005A   24201.47236484 -.00000080  00000+0  13535-3 0  9995
2 39072  52.0018 207.2546 0000202 238.5507 121.5340 12.62269100528795
GLOBALSTAR M093         
1 39073U 13005B   24201.36631318 -.00000079  00000+0  14032-3 0  9990
2 39073  51.9782 201.4098 0000342 250.3428 109.7402 12.62276098528734
GLOBALSTAR M094         
1 39074U 13005C   24201.44551895 -.00000129  00000+0 -14133-3 0  9990
2 39074  51.9961 115.2173 0000437  14.9762 345.1117 12.62286366530359
GLOBALSTAR M096         
1 39075U 13005D   24201.61709678 -.00000112  00000+0 -45592-4 0  9990
2 39075  52.0056 162.9495 0000183 286.1372  73.9474 12.62267669529648
GLOBALSTAR M078         
1 39076U 13005E   24201.51161984 -.00000071  00000+0  18426-3 0  9990
2 39076  51.9855 248.2364 0001270 153.4824 206.6107 12.62273284527908
GLOBALSTAR M095         
1 39077U 13005F   24201.53771559 -.00000060  00000+0  24580-3 0  9994
2 39077  51.9781 245.5166 0000851 183.5517 176.5343 12.62262491527763
GLOBALSTAR M087         
1 52888U 22064A   24201.38902688 -.00000083  00000+0  87050-4 0  9993
2 52888  51.9759  96.0948 0010039  84.9931 275.2115 13.37578760101835
